STARLINK-1390_new
1 15550C 20025V   21326.13574857 -.00000918  00000-0 -61490-4 0  3260
2 15550  53.0543 308.1404 0001873  59.1129 349.9394 15.06389889    16
STARLINK-1390_old
1 25550C 20025V   21325.11997126 -.00018578  00000-0 -12446-2 0  3250
2 25550  53.0545 312.7003 0001907  59.0270 238.3595 15.06422162    14
